{
  "type": "FeatureCollection",
  "features": [
    {
      "type": "Feature",
      "properties": {
        "norad_id": 29268,
        "name": "ARIRANG-2 (KOMPSAT-2)",
        "group": "resource",
        "lat": -14.35785782372383,
        "lon": -4.858115808368845,
        "alt_km": 686.2880327704943,
        "timestamp": "2025-12-14T18:52:55.154725+00:00",
        "meta_object_name": "ARIRANG-2 (KOMPSAT-2)",
        "meta_object_id": "2006-031A",
        "meta_epoch": "2025-12-14T00:38:59.363808",
        "meta_mean_motion": 14.6449638,
        "meta_eccentricity": 0.00134609,
        "meta_inclination": 97.8265,
        "meta_ra_of_asc_node": 176.4372,
        "meta_arg_of_pericenter": 304.8407,
        "meta_mean_anomaly": 206.9495,
        "meta_ephemeris_type": 0,
        "meta_classification_type": "U",
        "meta_norad_cat_id": 29268,
        "meta_element_set_no": 999,
        "meta_rev_at_epoch": 3437,
        "meta_bstar": 0.00016227269,
        "meta_mean_motion_dot": 8.16e-06,
        "meta_mean_motion_ddot": 0,
        "tle_line1": "1 29268U 06031A   25348.02707597  .00000816  00000+0  16227-3 0  9991",
        "tle_line2": "2 29268  97.8265 176.4372 0013460 304.8407 206.9495 14.64496380 34373"
      },
      "geometry": {
        "type": "Point",
        "coordinates": [
          -4.858115808368845,
          -14.35785782372383
        ]
      }
    },
    {
      "type": "Feature",
      "properties": {
        "norad_id": 29709,
        "name": "LAPAN-TUBSAT",
        "group": "resource",
        "lat": -73.10454600832557,
        "lon": 7.045536650143994,
        "alt_km": 626.3303149264902,
        "timestamp": "2025-12-14T18:52:55.154736+00:00",
        "meta_object_name": "LAPAN-TUBSAT",
        "meta_object_id": "2007-001A",
        "meta_epoch": "2025-12-13T23:49:23.002176",
        "meta_mean_motion": 14.85673312,
        "meta_eccentricity": 0.00135551,
        "meta_inclination": 98.1258,
        "meta_ra_of_asc_node": 338.1749,
        "meta_arg_of_pericenter": 70.4335,
        "meta_mean_anomaly": 289.8342,
        "meta_ephemeris_type": 0,
        "meta_classification_type": "U",
        "meta_norad_cat_id": 29709,
        "meta_element_set_no": 999,
        "meta_rev_at_epoch": 2365,
        "meta_bstar": 0.00014852239,
        "meta_mean_motion_dot": 1.232e-05,
        "meta_mean_motion_ddot": 0,
        "tle_line1": "1 29709U 07001A   25347.99262734  .00001232  00000+0  14852-3 0  9998",
        "tle_line2": "2 29709  98.1258 338.1749 0013555  70.4335 289.8342 14.85673312 23650"
      },
      "geometry": {
        "type": "Point",
        "coordinates": [
          7.045536650143994,
          -73.10454600832557
        ]
      }
    },
    {
      "type": "Feature",
      "properties": {
        "norad_id": 31113,
        "name": "HAIYANG-1B",
        "group": "resource",
        "lat": 51.346942870124025,
        "lon": 163.53753560662645,
        "alt_km": 784.7406727707985,
        "timestamp": "2025-12-14T18:52:55.154746+00:00",
        "meta_object_name": "HAIYANG-1B",
        "meta_object_id": "2007-010A",
        "meta_epoch": "2025-12-13T22:09:00.193824",
        "meta_mean_motion": 14.30965522,
        "meta_eccentricity": 0.00142076,
        "meta_inclination": 98.3315,
        "meta_ra_of_asc_node": 332.1521,
        "meta_arg_of_pericenter": 34.6099,
        "meta_mean_anomaly": 325.6007,
        "meta_ephemeris_type": 0,
        "meta_classification_type": "U",
        "meta_norad_cat_id": 31113,
        "meta_element_set_no": 999,
        "meta_rev_at_epoch": 97413,
        "meta_bstar": 8.7561363e-05,
        "meta_mean_motion_dot": 1.89e-06,
        "meta_mean_motion_ddot": 0,
        "tle_line1": "1 31113U 07010A   25347.92291891  .00000189  00000+0  87561-4 0  9997",
        "tle_line2": "2 31113  98.3315 332.1521 0014207  34.6099 325.6007 14.30965522974136"
      },
      "geometry": {
        "type": "Point",
        "coordinates": [
          163.53753560662645,
          51.346942870124025
        ]
      }
    },
    {
      "type": "Feature",
      "properties": {
        "norad_id": 31598,
        "name": "COSMO-SKYMED 1",
        "group": "resource",
        "lat": -44.22855394275035,
        "lon": -178.04959334080598,
        "alt_km": 587.2817479210062,
        "timestamp": "2025-12-14T18:52:55.154757+00:00",
        "meta_object_name": "COSMO-SKYMED 1",
        "meta_object_id": "2007-023A",
        "meta_epoch": "2025-12-13T23:48:56.530080",
        "meta_mean_motion": 14.95776759,
        "meta_eccentricity": 0.00013188,
        "meta_inclination": 97.8834,
        "meta_ra_of_asc_node": 173.3995,
        "meta_arg_of_pericenter": 90.1083,
        "meta_mean_anomaly": 270.0289,
        "meta_ephemeris_type": 0,
        "meta_classification_type": "U",
        "meta_norad_cat_id": 31598,
        "meta_element_set_no": 999,
        "meta_rev_at_epoch": 209,
        "meta_bstar": 0.00042433741,
        "meta_mean_motion_dot": 4.674e-05,
        "meta_mean_motion_ddot": 0,
        "tle_line1": "1 31598U 07023A   25347.99232095  .00004674  00000+0  42434-3 0  9998",
        "tle_line2": "2 31598  97.8834 173.3995 0001318  90.1083 270.0289 14.95776759  2097"
      },
      "geometry": {
        "type": "Point",
        "coordinates": [
          -178.04959334080598,
          -44.22855394275035
        ]
      }
    },
    {
      "type": "Feature",
      "properties": {
        "norad_id": 31698,
        "name": "TERRASAR-X",
        "group": "resource",
        "lat": 36.36386373713274,
        "lon": 179.66229883582554,
        "alt_km": 505.26970363965665,
        "timestamp": "2025-12-14T18:52:55.154767+00:00",
        "meta_object_name": "TERRASAR-X",
        "meta_object_id": "2007-026A",
        "meta_epoch": "2025-12-13T12:13:05.117664",
        "meta_mean_motion": 15.19151549,
        "meta_eccentricity": 0.00017647,
        "meta_inclination": 97.4456,
        "meta_ra_of_asc_node": 352.8775,
        "meta_arg_of_pericenter": 89.7934,
        "meta_mean_anomaly": 270.3503,
        "meta_ephemeris_type": 0,
        "meta_classification_type": "U",
        "meta_norad_cat_id": 31698,
        "meta_element_set_no": 999,
        "meta_rev_at_epoch": 2503,
        "meta_bstar": 0.00010409632,
        "meta_mean_motion_dot": 2.12e-05,
        "meta_mean_motion_ddot": 0,
        "tle_line1": "1 31698U 07026A   25347.50908701  .00002120  00000+0  10410-3 0  9996",
        "tle_line2": "2 31698  97.4456 352.8775 0001764  89.7934 270.3503 15.19151549 25030"
      },
      "geometry": {
        "type": "Point",
        "coordinates": [
          179.66229883582554,
          36.36386373713274
        ]
      }
    },
    {
      "type": "Feature",
      "properties": {
        "norad_id": 32060,
        "name": "WORLDVIEW-1 (WV-1)",
        "group": "resource",
        "lat": -5.463567983959745,
        "lon": -74.47237972948783,
        "alt_km": 495.2495235181095,
        "timestamp": "2025-12-14T18:52:55.154778+00:00",
        "meta_object_name": "WORLDVIEW-1 (WV-1)",
        "meta_object_id": "2007-041A",
        "meta_epoch": "2025-12-13T21:35:44.369376",
        "meta_mean_motion": 15.24715909,
        "meta_eccentricity": 8.031e-05,
        "meta_inclination": 97.3831,
        "meta_ra_of_asc_node": 105.364,
        "meta_arg_of_pericenter": 110.7836,
        "meta_mean_anomaly": 249.3488,
        "meta_ephemeris_type": 0,
        "meta_classification_type": "U",
        "meta_norad_cat_id": 32060,
        "meta_element_set_no": 999,
        "meta_rev_at_epoch": 1465,
        "meta_bstar": 0.00039798427,
        "meta_mean_motion_dot": 9.781e-05,
        "meta_mean_motion_ddot": 0,
        "tle_line1": "1 32060U 07041A   25347.89981909  .00009781  00000+0  39798-3 0  9990",
        "tle_line2": "2 32060  97.3831 105.3640 0000803 110.7836 249.3488 15.24715909 14657"
      },
      "geometry": {
        "type": "Point",
        "coordinates": [
          -74.47237972948783,
          -5.463567983959745
        ]
      }
    },
    {
      "type": "Feature",
      "properties": {
        "norad_id": 32289,
        "name": "YAOGAN-3",
        "group": "resource",
        "lat": 57.824313433370136,
        "lon": -151.9607264939297,
        "alt_km": 592.1321848303578,
        "timestamp": "2025-12-14T18:52:55.154788+00:00",
        "meta_object_name": "YAOGAN-3",
        "meta_object_id": "2007-055A",
        "meta_epoch": "2025-12-14T00:36:33.117984",
        "meta_mean_motion": 14.89867932,
        "meta_eccentricity": 0.00012901,
        "meta_inclination": 97.8372,
        "meta_ra_of_asc_node": 14.6385,
        "meta_arg_of_pericenter": 79.4395,
        "meta_mean_anomaly": 280.6968,
        "meta_ephemeris_type": 0,
        "meta_classification_type": "U",
        "meta_norad_cat_id": 32289,
        "meta_element_set_no": 999,
        "meta_rev_at_epoch": 97828,
        "meta_bstar": 0.00039927658,
        "meta_mean_motion_dot": 3.783e-05,
        "meta_mean_motion_ddot": 0,
        "tle_line1": "1 32289U 07055A   25348.02538331  .00003783  00000+0  39928-3 0  9992",
        "tle_line2": "2 32289  97.8372  14.6385 0001290  79.4395 280.6968 14.89867932978288"
      },
      "geometry": {
        "type": "Point",
        "coordinates": [
          -151.9607264939297,
          57.824313433370136
        ]
      }
    }
  ]
}